[{"OBJECT_NAME":"DONGPO 10","OBJECT_ID":"2022-167H","EPOCH":"2026-03-09T22:44:56.137344","MEAN_MOTION":15.322785,"ECCENTRICITY":0.00061655,"INCLINATION":97.685,"RA_OF_ASC_NODE":235.0962,"ARG_OF_PERICENTER":106.9526,"MEAN_ANOMALY":253.2392,"EPHEMERIS_TYPE":0,"CLASSIFICATION_TYPE":"U","NORAD_CAT_ID":54689,"ELEMENT_SET_NO":999,"REV_AT_EPOCH":18015,"BSTAR":0.00049390523,"MEAN_MOTION_DOT":0.00015333,"MEAN_MOTION_DDOT":0},{"OBJECT_NAME":"STARLINK-32152","OBJECT_ID":"2024-131W","EPOCH":"2026-03-09T09:00:13.373856","MEAN_MOTION":15.30192193,"ECCENTRICITY":0.00011505,"INCLINATION":53.1607,"RA_OF_ASC_NODE":53.6603,"ARG_OF_PERICENTER":77.1887,"MEAN_ANOMALY":282.9242,"EPHEMERIS_TYPE":0,"CLASSIFICATION_TYPE":"U","NORAD_CAT_ID":60275,"ELEMENT_SET_NO":999,"REV_AT_EPOCH":9157,"BSTAR":8.982609e-6,"MEAN_MOTION_DOT":-9.3e-7,"MEAN_MOTION_DDOT":0}]
